WGS F9 (USA 275)        
1 42075U 17016A   26088.18410705 -.00000116  00000+0  00000+0 0  9990
2 42075   0.0108 188.5232 0000756  40.0106  12.3267  1.00269119 33092
SES-10                  
1 42432U 17017A   26088.03065123 -.00000292  00000+0  00000+0 0  9997
2 42432   0.0338  51.0786 0002652 322.5275 116.9572  1.00272220 32955
CZ-3B DEB               
1 42458U 10042Z   26086.58548523  .00000170  00000+0  48362-2 0  9994
2 42458  30.3160 273.6972 7502914 197.2861 106.3688  1.81275350 74999
CZ-3B DEB               
1 42459U 10042AA  26061.80757901 -.00000288  00000+0  00000+0 0  9990
2 42459  27.4941 321.4817 7260772 238.9864  31.0593  1.87009469 76648
CZ-3B DEB               
1 42460U 10042AB  26087.27583142  .00000187  00000+0  78801-2 0  9999
2 42460  29.8593 124.3969 7475550  66.0177 352.2897  1.90171504   394
CZ-3B DEB               
1 42464U 10042AF  26087.48206190 -.00000015  00000+0  00000+0 0  9995
2 42464  24.7427 294.0103 7387508   6.7159 359.4560  1.82497574 81056
CZ-3B DEB               
1 42471U 11077AL  26086.59067576 -.00000006  00000+0  33926-2 0  9992
2 42471  26.4748 332.0657 7459160  86.4113 347.5196  1.89259612 33141
CZ-3B DEB               
1 42473U 11077AN  26084.40694867 -.00000206  00000+0  00000+0 0  9997
2 42473  23.2186  78.9025 7157217  77.1546 348.3150  1.69219218 61678
CZ-3B DEB               
1 42474U 11077AP  26084.90073257 -.00000190  00000+0  00000+0 0  9999
2 42474  22.3924 103.0896 7148029  47.0213 354.1693  1.66951723 67453
CZ-3B DEB               
1 42475U 11077AQ  26087.02970799  .00000156  00000+0  11469-1 0  9997
2 42475  26.5409 326.4583 7415443  92.0699 345.5333  1.91441511 31337
ARIANE 2 DEB            
1 42485U 89006CM  26087.08467882 -.00000264  00000+0  00000+0 0  9993
2 42485   8.6038  68.8178 6692181 123.5382 291.0988  2.17628233 96797
CHINASAT 16 (SJ-13)     
1 42662U 17018A   26088.06583806 -.00000371  00000+0  00000+0 0  9997
2 42662   0.0660  87.2805 0004749 169.4615  63.9147  1.00272624 32942
KOREASAT 7              
1 42691U 17023A   26088.06687806 -.00000381  00000+0  00000+0 0  9991
2 42691   0.0251 312.5499 0001864  73.2908 300.6077  1.00273115 32562
SGDC                    
1 42692U 17023B   26087.69097732 -.00000269  00000+0  00000+0 0  9998
2 42692   0.0268  86.8208 0002713 290.8249 342.3402  1.00272993 32602
GSAT-9                  
1 42695U 17024A   26088.06315137 -.00000305  00000+0  00000+0 0  9997
2 42695   0.0509 309.0779 0002597  55.9026 301.5173  1.00270546 32490
INMARSAT 5-F4           
1 42698U 17025A   26087.98379953  .00000000  00000+0  00000+0 0  9998
2 42698   0.0236 176.2347 0000358 154.3364 266.5137  1.00272620 32470
