[{"OBJECT_NAME":"WGS F9 (USA 275)","OBJECT_ID":"2017-016A","EPOCH":"2026-03-29T04:25:06.849120","MEAN_MOTION":1.00269119,"ECCENTRICITY":7.56e-5,"INCLINATION":0.0108,"RA_OF_ASC_NODE":188.5232,"ARG_OF_PERICENTER":40.0106,"MEAN_ANOMALY":12.3267,"EPHEMERIS_TYPE":0,"CLASSIFICATION_TYPE":"U","NORAD_CAT_ID":42075,"ELEMENT_SET_NO":999,"REV_AT_EPOCH":3309,"BSTAR":0,"MEAN_MOTION_DOT":-1.16e-6,"MEAN_MOTION_DDOT":0},{"OBJECT_NAME":"SES-10","OBJECT_ID":"2017-017A","EPOCH":"2026-03-29T00:44:08.266272","MEAN_MOTION":1.0027222,"ECCENTRICITY":0.0002652,"INCLINATION":0.0338,"RA_OF_ASC_NODE":51.0786,"ARG_OF_PERICENTER":322.5275,"MEAN_ANOMALY":116.9572,"EPHEMERIS_TYPE":0,"CLASSIFICATION_TYPE":"U","NORAD_CAT_ID":42432,"ELEMENT_SET_NO":999,"REV_AT_EPOCH":3295,"BSTAR":0,"MEAN_MOTION_DOT":-2.92e-6,"MEAN_MOTION_DDOT":0},{"OBJECT_NAME":"CZ-3B DEB","OBJECT_ID":"2010-042Z","EPOCH":"2026-03-27T14:03:05.923872","MEAN_MOTION":1.8127535,"ECCENTRICITY":0.7502914,"INCLINATION":30.316,"RA_OF_ASC_NODE":273.6972,"ARG_OF_PERICENTER":197.2861,"MEAN_ANOMALY":106.3688,"EPHEMERIS_TYPE":0,"CLASSIFICATION_TYPE":"U","NORAD_CAT_ID":42458,"ELEMENT_SET_NO":999,"REV_AT_EPOCH":7499,"BSTAR":0.0048362,"MEAN_MOTION_DOT":1.7e-6,"MEAN_MOTION_DDOT":0},{"OBJECT_NAME":"CZ-3B DEB","OBJECT_ID":"2010-042AA","EPOCH":"2026-03-02T19:22:54.826464","MEAN_MOTION":1.87009469,"ECCENTRICITY":0.72607728,"INCLINATION":27.4941,"RA_OF_ASC_NODE":321.4817,"ARG_OF_PERICENTER":238.9864,"MEAN_ANOMALY":31.0593,"EPHEMERIS_TYPE":0,"CLASSIFICATION_TYPE":"U","NORAD_CAT_ID":42459,"ELEMENT_SET_NO":999,"REV_AT_EPOCH":7664,"BSTAR":0,"MEAN_MOTION_DOT":-2.88e-6,"MEAN_MOTION_DDOT":0},{"OBJECT_NAME":"CZ-3B DEB","OBJECT_ID":"2010-042AB","EPOCH":"2026-03-28T06:37:11.834688","MEAN_MOTION":1.90171504,"ECCENTRICITY":0.747555,"INCLINATION":29.8593,"RA_OF_ASC_NODE":124.3969,"ARG_OF_PERICENTER":66.0177,"MEAN_ANOMALY":352.2897,"EPHEMERIS_TYPE":0,"CLASSIFICATION_TYPE":"U","NORAD_CAT_ID":42460,"ELEMENT_SET_NO":999,"REV_AT_EPOCH":39,"BSTAR":0.0078801,"MEAN_MOTION_DOT":1.87e-6,"MEAN_MOTION_DDOT":0},{"OBJECT_NAME":"CZ-3B DEB","OBJECT_ID":"2010-042AF","EPOCH":"2026-03-28T11:34:10.148160","MEAN_MOTION":1.82497574,"ECCENTRICITY":0.73875086,"INCLINATION":24.7427,"RA_OF_ASC_NODE":294.0103,"ARG_OF_PERICENTER":6.7159,"MEAN_ANOMALY":359.456,"EPHEMERIS_TYPE":0,"CLASSIFICATION_TYPE":"U","NORAD_CAT_ID":42464,"ELEMENT_SET_NO":999,"REV_AT_EPOCH":8105,"BSTAR":0,"MEAN_MOTION_DOT":-1.5e-7,"MEAN_MOTION_DDOT":0},{"OBJECT_NAME":"CZ-3B DEB","OBJECT_ID":"2011-077AL","EPOCH":"2026-03-27T14:10:34.385664","MEAN_MOTION":1.89259612,"ECCENTRICITY":0.745916,"INCLINATION":26.4748,"RA_OF_ASC_NODE":332.0657,"ARG_OF_PERICENTER":86.4113,"MEAN_ANOMALY":347.5196,"EPHEMERIS_TYPE":0,"CLASSIFICATION_TYPE":"U","NORAD_CAT_ID":42471,"ELEMENT_SET_NO":999,"REV_AT_EPOCH":3314,"BSTAR":0.0033926,"MEAN_MOTION_DOT":-6.0e-8,"MEAN_MOTION_DDOT":0},{"OBJECT_NAME":"CZ-3B DEB","OBJECT_ID":"2011-077AN","EPOCH":"2026-03-25T09:46:00.365088","MEAN_MOTION":1.69219218,"ECCENTRICITY":0.71572174,"INCLINATION":23.2186,"RA_OF_ASC_NODE":78.9025,"ARG_OF_PERICENTER":77.1546,"MEAN_ANOMALY":348.315,"EPHEMERIS_TYPE":0,"CLASSIFICATION_TYPE":"U","NORAD_CAT_ID":42473,"ELEMENT_SET_NO":999,"REV_AT_EPOCH":6167,"BSTAR":0,"MEAN_MOTION_DOT":-2.06e-6,"MEAN_MOTION_DDOT":0},{"OBJECT_NAME":"CZ-3B DEB","OBJECT_ID":"2011-077AP","EPOCH":"2026-03-25T21:37:03.294048","MEAN_MOTION":1.66951723,"ECCENTRICITY":0.7148029,"INCLINATION":22.3924,"RA_OF_ASC_NODE":103.0896,"ARG_OF_PERICENTER":47.0213,"MEAN_ANOMALY":354.1693,"EPHEMERIS_TYPE":0,"CLASSIFICATION_TYPE":"U","NORAD_CAT_ID":42474,"ELEMENT_SET_NO":999,"REV_AT_EPOCH":6745,"BSTAR":0,"MEAN_MOTION_DOT":-1.9e-6,"MEAN_MOTION_DDOT":0},{"OBJECT_NAME":"CZ-3B DEB","OBJECT_ID":"2011-077AQ","EPOCH":"2026-03-28T00:42:46.770336","MEAN_MOTION":1.91441511,"ECCENTRICITY":0.74154439,"INCLINATION":26.5409,"RA_OF_ASC_NODE":326.4583,"ARG_OF_PERICENTER":92.0699,"MEAN_ANOMALY":345.5333,"EPHEMERIS_TYPE":0,"CLASSIFICATION_TYPE":"U","NORAD_CAT_ID":42475,"ELEMENT_SET_NO":999,"REV_AT_EPOCH":3133,"BSTAR":0.011468952,"MEAN_MOTION_DOT":1.56e-6,"MEAN_MOTION_DDOT":0},{"OBJECT_NAME":"ARIANE 2 DEB","OBJECT_ID":"1989-006CM","EPOCH":"2026-03-28T02:01:56.250048","MEAN_MOTION":2.17628233,"ECCENTRICITY":0.6692181,"INCLINATION":8.6038,"RA_OF_ASC_NODE":68.8178,"ARG_OF_PERICENTER":123.5382,"MEAN_ANOMALY":291.0988,"EPHEMERIS_TYPE":0,"CLASSIFICATION_TYPE":"U","NORAD_CAT_ID":42485,"ELEMENT_SET_NO":999,"REV_AT_EPOCH":9679,"BSTAR":0,"MEAN_MOTION_DOT":-2.64e-6,"MEAN_MOTION_DDOT":0},{"OBJECT_NAME":"CHINASAT 16 (SJ-13)","OBJECT_ID":"2017-018A","EPOCH":"2026-03-29T01:34:48.408384","MEAN_MOTION":1.00272624,"ECCENTRICITY":0.0004749,"INCLINATION":0.066,"RA_OF_ASC_NODE":87.2805,"ARG_OF_PERICENTER":169.4615,"MEAN_ANOMALY":63.9147,"EPHEMERIS_TYPE":0,"CLASSIFICATION_TYPE":"U","NORAD_CAT_ID":42662,"ELEMENT_SET_NO":999,"REV_AT_EPOCH":3294,"BSTAR":0,"MEAN_MOTION_DOT":-3.71e-6,"MEAN_MOTION_DDOT":0},{"OBJECT_NAME":"KOREASAT 7","OBJECT_ID":"2017-023A","EPOCH":"2026-03-29T01:36:18.264384","MEAN_MOTION":1.00273115,"ECCENTRICITY":0.0001864,"INCLINATION":0.0251,"RA_OF_ASC_NODE":312.5499,"ARG_OF_PERICENTER":73.2908,"MEAN_ANOMALY":300.6077,"EPHEMERIS_TYPE":0,"CLASSIFICATION_TYPE":"U","NORAD_CAT_ID":42691,"ELEMENT_SET_NO":999,"REV_AT_EPOCH":3256,"BSTAR":0,"MEAN_MOTION_DOT":-3.81e-6,"MEAN_MOTION_DDOT":0},{"OBJECT_NAME":"SGDC","OBJECT_ID":"2017-023B","EPOCH":"2026-03-28T16:35:00.440448","MEAN_MOTION":1.00272993,"ECCENTRICITY":0.0002713,"INCLINATION":0.0268,"RA_OF_ASC_NODE":86.8208,"ARG_OF_PERICENTER":290.8249,"MEAN_ANOMALY":342.3402,"EPHEMERIS_TYPE":0,"CLASSIFICATION_TYPE":"U","NORAD_CAT_ID":42692,"ELEMENT_SET_NO":999,"REV_AT_EPOCH":3260,"BSTAR":0,"MEAN_MOTION_DOT":-2.69e-6,"MEAN_MOTION_DDOT":0},{"OBJECT_NAME":"GSAT-9","OBJECT_ID":"2017-024A","EPOCH":"2026-03-29T01:30:56.278368","MEAN_MOTION":1.00270546,"ECCENTRICITY":0.0002597,"INCLINATION":0.0509,"RA_OF_ASC_NODE":309.0779,"ARG_OF_PERICENTER":55.9026,"MEAN_ANOMALY":301.5173,"EPHEMERIS_TYPE":0,"CLASSIFICATION_TYPE":"U","NORAD_CAT_ID":42695,"ELEMENT_SET_NO":999,"REV_AT_EPOCH":3249,"BSTAR":0,"MEAN_MOTION_DOT":-3.05e-6,"MEAN_MOTION_DDOT":0},{"OBJECT_NAME":"INMARSAT 5-F4","OBJECT_ID":"2017-025A","EPOCH":"2026-03-28T23:36:40.279392","MEAN_MOTION":1.0027262,"ECCENTRICITY":3.58e-5,"INCLINATION":0.0236,"RA_OF_ASC_NODE":176.2347,"ARG_OF_PERICENTER":154.3364,"MEAN_ANOMALY":266.5137,"EPHEMERIS_TYPE":0,"CLASSIFICATION_TYPE":"U","NORAD_CAT_ID":42698,"ELEMENT_SET_NO":999,"REV_AT_EPOCH":3247,"BSTAR":0,"MEAN_MOTION_DOT":0,"MEAN_MOTION_DDOT":0}]
